LEMUR-2-ROUNDTRIPPER    
1 62711U 25009DG  26177.20938405  .00009568  00000+0  69753-3 0  9997
2 62711  97.7250 259.8763 0005591 108.9426 251.2406 15.03930520 78989
LEMUR-2-MYNAMEISJEFF    
1 62712U 25009DH  26176.54243399  .00010532  00000+0  76764-3 0  9998
2 62712  97.7294 259.5966 0004029 135.3275 224.8275 15.03916865 78886
LEMUR-2-LEIA-PHILIP     
1 63246U 25052AN  26177.15820784  .00001237  00000+0  11155-3 0  9991
2 63246  97.6821  68.9580 0003626 180.1249 179.9972 14.97335127 70018
LEMUR-2-LIA-MARTIN      
1 63248U 25052AQ  26177.16024918  .00005171  00000+0  44426-3 0  9997
2 63248  97.6877  69.4481 0003748 141.5456 218.6034 14.97865889 70027
LEMUR-2-DELOITTE-1      
1 63259U 25052BB  26176.67012404  .00003924  00000+0  34015-3 0  9998
2 63259  97.6929  69.2960 0003255  78.9784 281.1804 14.97662465 69963
LEMUR-2-EMERSONROSE     
1 63261U 25052BD  26177.17095201  .00004538  00000+0  37792-3 0  9990
2 63261  97.6879  70.3631 0002024  77.9779 282.1671 14.99139299 70088
LEMUR-2-MARACHE-FRAN    
1 63262U 25052BE  26176.94000321  .00005246  00000+0  42451-3 0  9999
2 63262  97.6926  70.4715 0004565 347.4009  12.7100 15.00173475 70079
LEMUR-2-THEFALCONER     
1 63264U 25052BG  26176.69776302  .00003918  00000+0  34160-3 0  9994
2 63264  97.6848  68.9334 0001640  15.8769 344.2504 14.97435616 69963
LEMUR-2-UNTITLED-SC     
1 63351U 25061A   26177.21240887  .00004078  00000+0  23053-3 0  9991
2 63351  97.5637 152.5085 0017310 230.4276 129.5426 15.13531866 68955
LEMUR-2-ESPERANZA       
1 63352U 25061B   26177.18899684  .00003523  00000+0  19919-3 0  9993
2 63352  97.5641 152.5807 0016921 229.6736 130.3018 15.13623255 68952
LEMUR-2-KREMPEL-BRO2    
1 63353U 25061C   26176.88292740  .00004050  00000+0  22558-3 0  9999
2 63353  97.5690 152.8214 0017970 222.8949 137.0882 15.14059221 68925
LEMUR-2-THERMORAPTOR    
1 63354U 25061D   26177.19496627  .00003882  00000+0  21593-3 0  9995
2 63354  97.5695 153.2090 0017752 220.6208 139.3701 15.14142889 68973
LEMUR-2-NEUROSPICY      
1 63355U 25061E   26176.90162789  .00003801  00000+0  21100-3 0  9998
2 63355  97.5619 152.5364 0015472 224.9017 135.0964 15.14255595 68937
LEMUR-2-TILLINFINITY    
1 63356U 25061F   26177.19775345  .00004113  00000+0  22415-3 0  9996
2 63356  97.5605 153.1277 0017028 211.2410 148.7812 15.14844333 69004
LEMUR-2-KREMPEL-BRO1    
1 63357U 25061G   26177.17237912  .00003758  00000+0  20621-3 0  9999
2 63357  97.5606 153.0160 0017638 212.9180 147.0955 15.14648941 68999
LEMUR-2-LANGER2SPACE    
1 63358U 25061H   26176.93637176  .00004068  00000+0  22498-3 0  9998
2 63358  97.5613 152.5919 0015428 222.9527 137.0501 15.14343732 68946
LEMUR-2-BALTO           
1 63395U 25052BH  26176.65793102  .00006831  00000+0  55111-3 0  9998
2 63395  97.6920  70.1680 0006658  35.4862 324.6803 15.00175304 70038
LEMUR-2-KRISH           
1 64561U 25135AK  26176.83505477  .00005078  00000+0  45459-3 0  9998
2 64561  97.7745 291.6520 0001167  99.3197 260.8156 14.96276722 55218
LEMUR-2-HUBBLE-4        
1 64565U 25135AP  26176.24464968  .00001390  00000+0  13793-3 0  9995
2 64565  97.7646 290.0421 0002848 296.9282  63.1646 14.93362478 55075
LEMUR-2-SEJONG-2        
1 64586U 25135BL  26177.12965324  .00005475  00000+0  48366-3 0  9990
2 64586  97.7690 292.0888 0002869 303.7614  56.3334 14.96763328 55288
LEMUR-2-HUBBLE-5        
1 64840U 25135BT  26177.13132808  .00001906  00000+0  18342-3 0  9993
2 64840  97.7724 291.5776 0004333 319.9363  40.1537 14.94161396 55244
LEMUR-2-KARENDARRELL    
1 64841U 25135BU  26176.85601152  .00009430  00000+0  75721-3 0  9999
2 64841  97.7678 293.0492 0010441 169.2748 190.8700 15.00228904 55315
LEMUR-2-LUCILLE-ROSE    
1 65403U 25135BV  26176.56271877  .00008403  00000+0  67482-3 0  9993
2 65403  97.7749 292.7853 0012136 252.1371 107.8528 15.00248713 49895
LEMUR-2-AFFIE-WAUWIE    
1 66295U 25248C   26176.75498525  .00028463  00000+0  10454-2 0  9994
2 66295  45.3936  68.5606 0007568 143.0765 217.0646 15.27482662 35909
LEMUR-2-DEANANDMAEVE    
1 66678U 25276N   26176.74233791  .00008082  00000+0  38001-3 0  9995
2 66678  97.4218 250.0761 0004880 342.9738  17.1332 15.19830139 31712
LEMUR-2-STAS-GORBUK     
1 66686U 25276W   26177.15398650  .00006745  00000+0  32109-3 0  9993
2 66686  97.4249 250.5351 0004155 342.4929  17.6161 15.19468435 31774
LEMUR-2-TEODOR          
1 66768U 25276DG  26177.19371852  .00006376  00000+0  28939-3 0  9999
2 66768  97.4155 250.8219 0002368 107.8780 252.2714 15.21142064 31815
LEMUR-2-LAILA           
1 66776U 25276DQ  26177.16632193  .00006874  00000+0  30969-3 0  9992
2 66776  97.4178 250.9213 0002665 122.9238 237.2255 15.21364676 31818
LEMUR-2-CELIJO-SB-PK    
1 66781U 25276DW  26177.17548066  .00007215  00000+0  58299-3 0  9990
2 66781  97.5234 247.6578 0008201 110.8239 249.3864 15.00078604 23972
LEMUR-2-FINNIAN         
1 66782U 25276DX  26177.15007896  .00004553  00000+0  36599-3 0  9991
2 66782  97.5321 247.8587 0008626  63.2247 296.9859 15.00460441 21348
