OBJECT_NAME,OBJECT_ID,EPOCH,MEAN_MOTION,ECCENTRICITY,INCLINATION,RA_OF_ASC_NODE,ARG_OF_PERICENTER,MEAN_ANOMALY,EPHEMERIS_TYPE,CLASSIFICATION_TYPE,NORAD_CAT_ID,ELEMENT_SET_NO,REV_AT_EPOCH,BSTAR,MEAN_MOTION_DOT,MEAN_MOTION_DDOT
LEMUR-2-ROUNDTRIPPER,2025-009DG,2026-06-26T05:01:30.781920,15.03930520,.0005591,97.7250,259.8763,108.9426,251.2406,0,U,62711,999,7898,.69753E-3,.9568E-4,0
LEMUR-2-MYNAMEISJEFF,2025-009DH,2026-06-25T13:01:06.296736,15.03916865,.0004029,97.7294,259.5966,135.3275,224.8275,0,U,62712,999,7888,.76764E-3,.10532E-3,0
LEMUR-2-LEIA-PHILIP,2025-052AN,2026-06-26T03:47:49.157376,14.97335127,.0003626,97.6821,68.9580,180.1249,179.9972,0,U,63246,999,7001,.11155E-3,.1237E-4,0
LEMUR-2-LIA-MARTIN,2025-052AQ,2026-06-26T03:50:45.529152,14.97865889,.0003748,97.6877,69.4481,141.5456,218.6034,0,U,63248,999,7002,.44426E-3,.5171E-4,0
LEMUR-2-DELOITTE-1,2025-052BB,2026-06-25T16:04:58.717056,14.97662465,.0003255,97.6929,69.2960,78.9784,281.1804,0,U,63259,999,6996,.34015E-3,.3924E-4,0
LEMUR-2-EMERSONROSE,2025-052BD,2026-06-26T04:06:10.253664,14.99139299,.0002024,97.6879,70.3631,77.9779,282.1671,0,U,63261,999,7008,.37792E-3,.4538E-4,0
LEMUR-2-MARACHE-FRAN,2025-052BE,2026-06-25T22:33:36.277344,15.00173475,.0004565,97.6926,70.4715,347.4009,12.7100,0,U,63262,999,7007,.42451E-3,.5246E-4,0
LEMUR-2-THEFALCONER,2025-052BG,2026-06-25T16:44:46.724928,14.97435616,.000164,97.6848,68.9334,15.8769,344.2504,0,U,63264,999,6996,.3416E-3,.3918E-4,0
LEMUR-2-UNTITLED-SC,2025-061A,2026-06-26T05:05:52.126368,15.13531866,.001731,97.5637,152.5085,230.4276,129.5426,0,U,63351,999,6895,.23053E-3,.4078E-4,0
LEMUR-2-ESPERANZA,2025-061B,2026-06-26T04:32:09.326976,15.13623255,.0016921,97.5641,152.5807,229.6736,130.3018,0,U,63352,999,6895,.19919E-3,.3523E-4,0
LEMUR-2-KREMPEL-BRO2,2025-061C,2026-06-25T21:11:24.927360,15.14059221,.001797,97.5690,152.8214,222.8949,137.0882,0,U,63353,999,6892,.22558E-3,.405E-4,0
LEMUR-2-THERMORAPTOR,2025-061D,2026-06-26T04:40:45.085728,15.14142889,.0017752,97.5695,153.2090,220.6208,139.3701,0,U,63354,999,6897,.21593E-3,.3882E-4,0
LEMUR-2-NEUROSPICY,2025-061E,2026-06-25T21:38:20.649696,15.14255595,.0015472,97.5619,152.5364,224.9017,135.0964,0,U,63355,999,6893,.211E-3,.3801E-4,0
LEMUR-2-TILLINFINITY,2025-061F,2026-06-26T04:44:45.898080,15.14844333,.0017028,97.5605,153.1277,211.2410,148.7812,0,U,63356,999,6900,.22415E-3,.4113E-4,0
LEMUR-2-KREMPEL-BRO1,2025-061G,2026-06-26T04:08:13.555968,15.14648941,.0017638,97.5606,153.0160,212.9180,147.0955,0,U,63357,999,6899,.20621E-3,.3758E-4,0
LEMUR-2-LANGER2SPACE,2025-061H,2026-06-25T22:28:22.520064,15.14343732,.0015428,97.5613,152.5919,222.9527,137.0501,0,U,63358,999,6894,.22498E-3,.4068E-4,0
LEMUR-2-BALTO,2025-052BH,2026-06-25T15:47:25.240128,15.00175304,.0006658,97.6920,70.1680,35.4862,324.6803,0,U,63395,999,7003,.55111E-3,.6831E-4,0
LEMUR-2-KRISH,2025-135AK,2026-06-25T20:02:28.732128,14.96276722,.0001167,97.7745,291.6520,99.3197,260.8156,0,U,64561,999,5521,.45459E-3,.5078E-4,0
LEMUR-2-HUBBLE-4,2025-135AP,2026-06-25T05:52:17.732352,14.93362478,.0002848,97.7646,290.0421,296.9282,63.1646,0,U,64565,999,5507,.13793E-3,.139E-4,0
LEMUR-2-SEJONG-2,2025-135BL,2026-06-26T03:06:42.039936,14.96763328,.0002869,97.7690,292.0888,303.7614,56.3334,0,U,64586,999,5528,.48366E-3,.5475E-4,0
LEMUR-2-HUBBLE-5,2025-135BT,2026-06-26T03:09:06.746112,14.94161396,.0004333,97.7724,291.5776,319.9363,40.1537,0,U,64840,999,5524,.18342E-3,.1906E-4,0
LEMUR-2-KARENDARRELL,2025-135BU,2026-06-25T20:32:39.395328,15.00228904,.0010441,97.7678,293.0492,169.2748,190.8700,0,U,64841,999,5531,.75721E-3,.943E-4,0
LEMUR-2-LUCILLE-ROSE,2025-135BV,2026-06-25T13:30:18.901728,15.00248713,.0012136,97.7749,292.7853,252.1371,107.8528,0,U,65403,999,4989,.67482E-3,.8403E-4,0
LEMUR-2-AFFIE-WAUWIE,2025-248C,2026-06-25T18:07:10.725600,15.27482662,.0007568,45.3936,68.5606,143.0765,217.0646,0,U,66295,999,3590,.10454E-2,.28463E-3,0
LEMUR-2-DEANANDMAEVE,2025-276N,2026-06-25T17:48:57.995424,15.19830139,.000488,97.4218,250.0761,342.9738,17.1332,0,U,66678,999,3171,.38001E-3,.8082E-4,0
LEMUR-2-STAS-GORBUK,2025-276W,2026-06-26T03:41:44.433600,15.19468435,.0004155,97.4249,250.5351,342.4929,17.6161,0,U,66686,999,3177,.32109E-3,.6745E-4,0
LEMUR-2-TEODOR,2025-276DG,2026-06-26T04:38:57.280128,15.21142064,.0002368,97.4155,250.8219,107.8780,252.2714,0,U,66768,999,3181,.28939E-3,.6376E-4,0
LEMUR-2-LAILA,2025-276DQ,2026-06-26T03:59:30.214752,15.21364676,.0002665,97.4178,250.9213,122.9238,237.2255,0,U,66776,999,3181,.30969E-3,.6874E-4,0
LEMUR-2-CELIJO-SB-PK,2025-276DW,2026-06-26T04:12:41.529024,15.00078604,.0008201,97.5234,247.6578,110.8239,249.3864,0,U,66781,999,2397,.58299E-3,.7215E-4,0
LEMUR-2-FINNIAN,2025-276DX,2026-06-26T03:36:06.822144,15.00460441,.0008626,97.5321,247.8587,63.2247,296.9859,0,U,66782,999,2134,.36599E-3,.4553E-4,0
